{
  "type": "FeatureCollection",
  "features": [
    {
      "type": "Feature",
      "properties": {
        "norad_id": 29876,
        "name": "FENGYUN 1C DEB",
        "group": "fengyun-1c-debris",
        "lat": -24.83969307404971,
        "lon": -147.47135400632848,
        "alt_km": 874.0959914307614,
        "timestamp": "2025-12-11T18:59:46.345200+00:00",
        "meta_object_name": "FENGYUN 1C DEB",
        "meta_object_id": "1999-025FW",
        "meta_epoch": "2025-12-11T02:56:43.630944",
        "meta_mean_motion": 14.20295714,
        "meta_eccentricity": 0.00615999,
        "meta_inclination": 98.3334,
        "meta_ra_of_asc_node": 35.7889,
        "meta_arg_of_pericenter": 22.0935,
        "meta_mean_anomaly": 5.4043,
        "meta_ephemeris_type": 0,
        "meta_classification_type": "U",
        "meta_norad_cat_id": 29876,
        "meta_element_set_no": 999,
        "meta_rev_at_epoch": 97894,
        "meta_bstar": 0.0001974448,
        "meta_mean_motion_dot": 3.9e-06,
        "meta_mean_motion_ddot": 0,
        "tle_line1": "1 29876U 99025FW  25345.12272721  .00000390  00000+0  19744-3 0  9999",
        "tle_line2": "2 29876  98.3334  35.7889 0061599  22.0935   5.4043 14.20295714978943"
      },
      "geometry": {
        "type": "Point",
        "coordinates": [
          -147.47135400632848,
          -24.83969307404971
        ]
      }
    },
    {
      "type": "Feature",
      "properties": {
        "norad_id": 29877,
        "name": "FENGYUN 1C DEB",
        "group": "fengyun-1c-debris",
        "lat": 49.43199210570643,
        "lon": -18.976237109119204,
        "alt_km": 837.1655605505694,
        "timestamp": "2025-12-11T18:59:46.345210+00:00",
        "meta_object_name": "FENGYUN 1C DEB",
        "meta_object_id": "1999-025FX",
        "meta_epoch": "2025-12-10T11:29:13.411680",
        "meta_mean_motion": 14.24783913,
        "meta_eccentricity": 0.00457557,
        "meta_inclination": 98.5373,
        "meta_ra_of_asc_node": 349.8523,
        "meta_arg_of_pericenter": 225.0866,
        "meta_mean_anomaly": 295.0151,
        "meta_ephemeris_type": 0,
        "meta_classification_type": "U",
        "meta_norad_cat_id": 29877,
        "meta_element_set_no": 999,
        "meta_rev_at_epoch": 97941,
        "meta_bstar": 0.00070663044,
        "meta_mean_motion_dot": 1.622e-05,
        "meta_mean_motion_ddot": 0,
        "tle_line1": "1 29877U 99025FX  25344.47862745  .00001622  00000+0  70663-3 0  9994",
        "tle_line2": "2 29877  98.5373 349.8523 0045755 225.0866 295.0151 14.24783913979414"
      },
      "geometry": {
        "type": "Point",
        "coordinates": [
          -18.976237109119204,
          49.43199210570643
        ]
      }
    },
    {
      "type": "Feature",
      "properties": {
        "norad_id": 29878,
        "name": "FENGYUN 1C DEB",
        "group": "fengyun-1c-debris",
        "lat": 37.36438457429409,
        "lon": -16.268739777493526,
        "alt_km": 519.5990812826813,
        "timestamp": "2025-12-11T18:59:46.345220+00:00",
        "meta_object_name": "FENGYUN 1C DEB",
        "meta_object_id": "1999-025FY",
        "meta_epoch": "2025-12-10T10:32:31.425504",
        "meta_mean_motion": 15.08966707,
        "meta_eccentricity": 0.00282948,
        "meta_inclination": 96.9487,
        "meta_ra_of_asc_node": 157.1625,
        "meta_arg_of_pericenter": 183.4267,
        "meta_mean_anomaly": 176.6774,
        "meta_ephemeris_type": 0,
        "meta_classification_type": "U",
        "meta_norad_cat_id": 29878,
        "meta_element_set_no": 999,
        "meta_rev_at_epoch": 98613,
        "meta_bstar": 0.011139031,
        "meta_mean_motion_dot": 0.00181758,
        "meta_mean_motion_ddot": 0,
        "tle_line1": "1 29878U 99025FY  25344.43925261  .00181758  00000+0  11139-1 0  9994",
        "tle_line2": "2 29878  96.9487 157.1625 0028294 183.4267 176.6774 15.08966707986136"
      },
      "geometry": {
        "type": "Point",
        "coordinates": [
          -16.268739777493526,
          37.36438457429409
        ]
      }
    },
    {
      "type": "Feature",
      "properties": {
        "norad_id": 29880,
        "name": "FENGYUN 1C DEB",
        "group": "fengyun-1c-debris",
        "lat": 47.8613363231616,
        "lon": -104.72325554072516,
        "alt_km": 812.410531318691,
        "timestamp": "2025-12-11T18:59:46.345231+00:00",
        "meta_object_name": "FENGYUN 1C DEB",
        "meta_object_id": "1999-025GA",
        "meta_epoch": "2025-12-11T07:17:14.267040",
        "meta_mean_motion": 13.93901968,
        "meta_eccentricity": 0.02316786,
        "meta_inclination": 98.1943,
        "meta_ra_of_asc_node": 264.007,
        "meta_arg_of_pericenter": 105.4947,
        "meta_mean_anomaly": 18.4675,
        "meta_ephemeris_type": 0,
        "meta_classification_type": "U",
        "meta_norad_cat_id": 29880,
        "meta_element_set_no": 999,
        "meta_rev_at_epoch": 95542,
        "meta_bstar": 0.0017831858,
        "meta_mean_motion_dot": 2.906e-05,
        "meta_mean_motion_ddot": 0,
        "tle_line1": "1 29880U 99025GA  25345.30363735  .00002906  00000+0  17832-2 0  9990",
        "tle_line2": "2 29880  98.1943 264.0070 0231678 105.4947  18.4675 13.93901968955424"
      },
      "geometry": {
        "type": "Point",
        "coordinates": [
          -104.72325554072516,
          47.8613363231616
        ]
      }
    },
    {
      "type": "Feature",
      "properties": {
        "norad_id": 29881,
        "name": "FENGYUN 1C DEB",
        "group": "fengyun-1c-debris",
        "lat": -77.4259992331494,
        "lon": 94.58446920805245,
        "alt_km": 1259.522377985113,
        "timestamp": "2025-12-11T18:59:46.345241+00:00",
        "meta_object_name": "FENGYUN 1C DEB",
        "meta_object_id": "1999-025GB",
        "meta_epoch": "2025-12-09T21:42:32.651712",
        "meta_mean_motion": 13.59595971,
        "meta_eccentricity": 0.02921351,
        "meta_inclination": 98.722,
        "meta_ra_of_asc_node": 316.3905,
        "meta_arg_of_pericenter": 79.1082,
        "meta_mean_anomaly": 311.2345,
        "meta_ephemeris_type": 0,
        "meta_classification_type": "U",
        "meta_norad_cat_id": 29881,
        "meta_element_set_no": 999,
        "meta_rev_at_epoch": 93196,
        "meta_bstar": 0.0028497843,
        "meta_mean_motion_dot": 2.763e-05,
        "meta_mean_motion_ddot": 0,
        "tle_line1": "1 29881U 99025GB  25343.90454458  .00002763  00000+0  28498-2 0  9999",
        "tle_line2": "2 29881  98.7220 316.3905 0292135  79.1082 311.2345 13.59595971931965"
      },
      "geometry": {
        "type": "Point",
        "coordinates": [
          94.58446920805245,
          -77.4259992331494
        ]
      }
    },
    {
      "type": "Feature",
      "properties": {
        "norad_id": 29884,
        "name": "FENGYUN 1C DEB",
        "group": "fengyun-1c-debris",
        "lat": -50.56139572871833,
        "lon": 30.98691747999197,
        "alt_km": 795.5440054717446,
        "timestamp": "2025-12-11T18:59:46.345251+00:00",
        "meta_object_name": "FENGYUN 1C DEB",
        "meta_object_id": "1999-025GE",
        "meta_epoch": "2025-12-11T01:02:18.540960",
        "meta_mean_motion": 14.40285549,
        "meta_eccentricity": 0.00444947,
        "meta_inclination": 99.6033,
        "meta_ra_of_asc_node": 18.2701,
        "meta_arg_of_pericenter": 141.8343,
        "meta_mean_anomaly": 249.1056,
        "meta_ephemeris_type": 0,
        "meta_classification_type": "U",
        "meta_norad_cat_id": 29884,
        "meta_element_set_no": 999,
        "meta_rev_at_epoch": 98525,
        "meta_bstar": 0.00094448735,
        "meta_mean_motion_dot": 2.975e-05,
        "meta_mean_motion_ddot": 0,
        "tle_line1": "1 29884U 99025GE  25345.04327015  .00002975  00000+0  94449-3 0  9992",
        "tle_line2": "2 29884  99.6033  18.2701 0044494 141.8343 249.1056 14.40285549985259"
      },
      "geometry": {
        "type": "Point",
        "coordinates": [
          30.98691747999197,
          -50.56139572871833
        ]
      }
    },
    {
      "type": "Feature",
      "properties": {
        "norad_id": 29885,
        "name": "FENGYUN 1C DEB",
        "group": "fengyun-1c-debris",
        "lat": -76.8083972314709,
        "lon": 62.05919854611075,
        "alt_km": 857.5551045252741,
        "timestamp": "2025-12-11T18:59:46.345261+00:00",
        "meta_object_name": "FENGYUN 1C DEB",
        "meta_object_id": "1999-025GF",
        "meta_epoch": "2025-12-10T15:11:11.104224",
        "meta_mean_motion": 14.13579549,
        "meta_eccentricity": 0.0118241,
        "meta_inclination": 98.3551,
        "meta_ra_of_asc_node": 279.8038,
        "meta_arg_of_pericenter": 170.3223,
        "meta_mean_anomaly": 314.693,
        "meta_ephemeris_type": 0,
        "meta_classification_type": "U",
        "meta_norad_cat_id": 29885,
        "meta_element_set_no": 999,
        "meta_rev_at_epoch": 97427,
        "meta_bstar": 0.00020375,
        "meta_mean_motion_dot": 3.71e-06,
        "meta_mean_motion_ddot": 0,
        "tle_line1": "1 29885U 99025GF  25344.63276741  .00000371  00000+0  20375-3 0  9991",
        "tle_line2": "2 29885  98.3551 279.8038 0118241 170.3223 314.6930 14.13579549974270"
      },
      "geometry": {
        "type": "Point",
        "coordinates": [
          62.05919854611075,
          -76.8083972314709
        ]
      }
    }
  ]
}